#aV2019  3 13  0  0  0.00000000     288 DD+AD WGS84 FIT  NGA
## 2044 259200.00000000   300.00000000 58555 0.0000000000000
+   31     1  2  3  5  6  7  8  9 10 11 12 13 14 15 16 17 18
+         19 20 21 22 23 24 25 26 27 28 29 30 31 32  0  0  0
+          0  0  0  0  0  0  0  0  0  0  0  0  0  0  0  0  0
+          0  0  0  0  0  0  0  0  0  0  0  0  0  0  0  0  0
+          0  0  0  0  0  0  0  0  0  0  0  0  0  0  0  0  0
++         2  2  2  2  2  2  2  2  2  2  2  2  2  2  2  2  2
++         2  2  2  2  2  2  2  2  2  2  2  2  2  2  0  0  0
++         0  0  0  0  0  0  0  0  0  0  0  0  0  0  0  0  0
++         0  0  0  0  0  0  0  0  0  0  0  0  0  0  0  0  0
++         0  0  0  0  0  0  0  0  0  0  0  0  0  0  0  0  0
%c cc cc ccc ccc cccc cccc cccc cccc ccccc ccccc ccccc ccccc
%c cc cc ccc ccc cccc cccc cccc cccc ccccc ccccc ccccc ccccc
%f  0.0000000  0.000000000  0.00000000000  0.000000000000000
%f  0.0000000  0.000000000  0.00000000000  0.000000000000000
%i    0    0    0    0      0      0      0      0         0
%i    0    0    0    0      0      0      0      0         0
/*      NGA, ST. LOUIS,MO.                                  
/*   EPHEMERIS COMPUTED FROM 2 DAYS OF DATA                 
/*   EPOCHA v3 SMOOTHER                                     
/*   G1762 IERS2010 SATAF SATAPC                            
*  2019  3 13 18 20  0.00000000
P  1  -5527.293122 -14150.438405 -21980.591767   -180.115970                    
V  1  26951.548249  -5099.032784  -3213.029595     -0.074920                    
P  2 -17277.214934  14801.076265  14166.491802   -162.606230                    
V  2 -17095.350863   2027.666796 -24173.120768     -0.096522                    
P  3 -11035.299792 -22457.364890  -9053.680089    186.284159                    
V  3   9312.185689   7054.543664 -28883.905751      0.011025                    
P  5  -6477.275803  15000.494903  20784.677977      1.175890                    
V  5 -18666.440215 -19176.125893   8177.851048      0.000150                    
P  6 -25231.590058   7484.362111   3740.922533    255.965675                    
V  6  -5040.087221  -1400.524703 -31559.278920     -0.087816                    
P  7 -19641.927321  -8297.115738  16369.821718     15.610291                    
V  7  19577.199523  -5071.475696  20782.028119     -0.072996                    
P  8   5228.445312 -25526.985239  -4518.569905   -136.028113                    
V  8   4337.227782  -4689.006393  31405.130754     -0.014096                    
P  9 -11221.896258 -12499.831168  20526.611185    445.730576                    
V  9   9187.709309 -24550.366415  -9916.267377     -0.057817                    
P 10  20135.605261   5818.723995 -16370.393504     98.008513                    
V 10  12340.137148  16850.063498  20902.365952     -0.085113                    
P 11   -899.170055 -18390.350485 -19745.153949   -645.631723                    
V 11  20317.059575 -13027.075363  11281.822721      0.065666                    
P 12   8535.593208  23022.356190 -10567.271896    260.446710                    
V 12  -9146.634964  -9405.117983 -28264.442385     -0.032585                    
P 13 -12776.527783  23182.489193   1803.199976    -71.841162                    
V 13  -1274.692933  -3334.521140  31836.171675      0.013929                    
P 14  17181.409689 -13164.421495 -14959.717781    -88.475504                    
V 14  -5815.522305  18872.056961 -22995.432474      0.013951                    
P 15  -1278.485869  25560.603739  -6550.284017   -323.710731                    
V 15  -5776.609563   6937.476950  29746.346716      0.018436                    
P 16   5923.686011 -15233.590198  20653.698866    -25.158449                    
V 16  16414.176007  21059.094775  11153.417325     -0.026190                    
P 17 -16188.034264   4076.918405 -20228.069031     22.903016                    
V 17   9192.902993 -24946.133713 -12228.917873      0.057089                    
P 18   5368.975734 -16391.330007 -20647.299616     34.489913                    
V 18  24737.328964  -4926.533563  10732.542153      0.035727                    
P 19 -17520.070402  12452.552427 -15959.647122   -342.696348                    
V 19   7034.949130 -18390.172554 -22394.049512      0.042884                    
P 20  22269.186005  12337.096382  -7929.530479    523.058221                    
V 20   5058.230720   9191.592219  28755.137980      0.003604                    
P 21  22108.422795   5192.542458  14476.230606   -233.187155                    
V 21 -16038.734062   6389.017442  23657.460021      0.073791                    
P 22  -5177.965151 -21172.523926 -14977.599811   -663.507585                    
V 22  15714.138758  11896.154464 -21843.136468     -0.075916                    
P 23  -4277.090729 -21594.743654  14879.443690   -194.156865                    
V 23   8261.373386 -16818.237505 -22925.905636      0.013810                    
P 24   1396.921820  15804.668057 -21433.240331    -63.311986                    
V 24 -26312.114919   5915.687567   2992.748936     -0.005370                    
P 25  17367.925038  20283.445002    -27.830149   -732.599380                    
V 25  -1587.587259   1639.857981 -31810.715079     -0.049852                    
P 26  14186.137771  -6962.470306  21349.507539    148.255181                    
V 26  17916.934584  20412.477087  -5070.350820      0.101257                    
P 27  11925.497765 -22829.811486   5705.588460    -85.449372                    
V 27   -112.049339   7801.931801  31233.804872     -0.079354                    
P 28 -19090.239171  -8812.992596 -15562.401047    766.246929                    
V 28 -10772.976246 -17966.758563  22607.222955      0.006830                    
P 29   6329.235762  17418.488106  19001.302880    250.186884                    
V 29 -10321.990217  21822.561633 -16539.331080     -0.088027                    
P 30 -25809.640299  -1095.322826   6580.438993    -67.859165                    
V 30   7783.528160  -4285.602130  29702.737644     -0.066098                    
P 31  25241.006644  -7546.471868   4910.167219     52.419758                    
V 31   6458.936414   1382.797066 -30649.618211     -0.026725                    
P 32  16757.398372  -7472.493100 -19119.311072   -182.898304                    
V 32  -6470.411220  23594.613739 -14965.833110      0.185916                    
EOF
